CSS (TIANHE)            
1 48274U 21035A   24130.90006335  .00051300  00000+0  53765-3 0  9999
2 48274  41.4682 317.0061 0003861 313.8159  46.2362 15.63536886173104
